STARLINK-32580          
1 62075U 24217U   26068.52520325  .00031384  00000+0  10673-2 0  9999
2 62075  53.1580 182.0554 0000674  76.1585 283.9491 15.30199409 73577
HAWK-11A                
1 62382U 24247F   26068.51231358  .00009457  00000+0  34106-3 0  9991
2 62382  44.9941 114.3328 0005466 327.3713  32.6832 15.28849427 67741
